{
    "links": {
        "self": "http://www.neowsapp.com/rest/v1/neo/3789613?api_key=iIulBulltgU6a56xZRHN4H3l9WmuAYTsLGpBGhQ2"
    },
    "id": "3789613",
    "neo_reference_id": "3789613",
    "name": "(2017 WB13)",
    "designation": "2017 WB13",
    "nasa_jpl_url": "http://ssd.jpl.nasa.gov/sbdb.cgi?sstr=3789613",
    "absolute_magnitude_h": 24.4,
    "estimated_diameter": {
        "kilometers": {
            "estimated_diameter_min": 0.0350392641,
            "estimated_diameter_max": 0.0783501764
        },
        "meters": {
            "estimated_diameter_min": 35.0392641108,
            "estimated_diameter_max": 78.3501764334
        },
        "miles": {
            "estimated_diameter_min": 0.0217723826,
            "estimated_diameter_max": 0.0486845275
        },
        "feet": {
            "estimated_diameter_min": 114.9582192654,
            "estimated_diameter_max": 257.0543928497
        }
    },
    "is_potentially_hazardous_asteroid": false,
    "close_approach_data": [
        {
            "close_approach_date": "2017-11-18",
            "close_approach_date_full": "2017-Nov-18 04:43",
            "epoch_date_close_approach": 1510980180000,
            "relative_velocity": {
                "kilometers_per_second": "9.9708521782",
                "kilometers_per_hour": "35895.0678416437",
                "miles_per_hour": "22303.7992374924"
            },
            "miss_distance": {
                "astronomical": "0.1789366559",
                "lunar": "69.6063591451",
                "kilometers": "26768542.587562933",
                "miles": "16633201.0721291554"
            },
            "orbiting_body": "Earth"
        }
    ],
    "orbital_data": {
        "orbit_id": "4",
        "orbit_determination_date": "2017-12-15 06:26:23",
        "first_observation_date": "2017-11-21",
        "last_observation_date": "2017-12-14",
        "data_arc_in_days": 23,
        "observations_used": 18,
        "orbit_uncertainty": "8",
        "minimum_orbit_intersection": ".17467",
        "jupiter_tisserand_invariant": "4.024",
        "epoch_osculation": "2458080.5",
        "eccentricity": ".3337329873979386",
        "semi_major_axis": "1.74161913335366",
        "inclination": "18.24004806972127",
        "ascending_node_longitude": "239.1917350671013",
        "orbital_period": "839.5145116863234",
        "perihelion_distance": "1.160383377070134",
        "perihelion_argument": "170.4625946357337",
        "aphelion_distance": "2.322854889637186",
        "perihelion_time": "2458066.823547416655",
        "mean_anomaly": "5.864726412071632",
        "mean_motion": ".4288192699336096",
        "equinox": "J2000",
        "orbit_class": {
            "orbit_class_type": "AMO",
            "orbit_class_description": "Near-Earth asteroid orbits similar to that of 1221 Amor",
            "orbit_class_range": "1.017 AU < q (perihelion) < 1.3 AU"
        }
    },
    "is_sentry_object": false
}